NORAD_CAT_ID,OBJECT_NAME,OBJECT_TYPE,EPOCH,MEAN_MOTION,ECCENTRICITY,INCLINATION,RA_OF_ASC_NODE,ARG_OF_PERICENTER,MEAN_ANOMALY,BSTAR,MEAN_MOTION_DOT,MEAN_MOTION_DDOT,TLE_LINE0,TLE_LINE1,TLE_LINE2,SEMIMAJOR_AXIS,PERIOD,APOGEE,PERIGEE,DECAYED
53746.0,STARLINK-4589,PAYLOAD,2023-08-26 23:46:47,15.08841491,0.0001486,53.2171,99.7907,80.8846,279.2314,4.2528e-05,3.89e-06,0.0,0 STARLINK-4589,1 53746U 22107AY  23238.99083258  .00000389  00000-0  42528-4 0  9994,2 53746  53.2171  99.7907 0001486  80.8846 279.2314 15.08841491 54064,6917.876,95.437,540.769,538.713,0.0
53746.0,STARLINK-4589,PAYLOAD,2023-08-27 20:26:48,15.08840848,0.000151,53.2174,95.924,83.0196,277.0968,8.9514e-05,1.137e-05,0.0,0 STARLINK-4589,1 53746U 22107AY  23239.85195398  .00001137  00000-0  89514-4 0  9997,2 53746  53.2174  95.9240 0001510  83.0196 277.0968 15.08840848 54972,6917.878,95.438,540.787,538.698,0.0
53746.0,STARLINK-4589,PAYLOAD,2023-08-28 07:34:30,15.08841196,0.0001452,53.217,93.8441,84.0321,276.0836,6.5043e-05,7.47e-06,0.0,0 STARLINK-4589,1 53746U 22107AY  23240.31563362  .00000747  00000-0  65043-4 0  9997,2 53746  53.2170  93.8441 0001452  84.0321 276.0836 15.08841196 54266,6917.877,95.437,540.746,538.737,0.0
53746.0,STARLINK-4589,PAYLOAD,2023-08-28 20:17:35,15.08843304,0.0001467,53.2168,91.466,85.3542,274.7618,0.00011043,1.47e-05,0.0,0 STARLINK-4589,1 53746U 22107AY  23240.84555311  .00001470  00000-0  11043-3 0  9994,2 53746  53.2168  91.4660 0001467  85.3542 274.7618 15.08843304 55127,6917.87,95.437,540.75,538.72,0.0
53746.0,STARLINK-4589,PAYLOAD,2023-08-29 07:25:17,15.08833896,0.0001078,53.2168,89.3841,93.6491,266.4625,-4.8596e-05,-1.061e-05,0.0,0 STARLINK-4589,1 53746U 22107AY  23241.30923540 -.00001061  00000-0 -48596-4 0  9991,2 53746  53.2168  89.3841 0001078  93.6491 266.4625 15.08833896 54419,6917.899,95.438,540.51,539.018,0.0
53746.0,STARLINK-4589,PAYLOAD,2023-08-29 20:08:22,15.08841358,0.0001379,53.2163,87.0056,85.9527,274.1623,3.9345e-05,3.38e-06,0.0,0 STARLINK-4589,1 53746U 22107AY  23241.83915404  .00000338  00000-0  39345-4 0  9995,2 53746  53.2163  87.0056 0001379  85.9527 274.1623 15.08841358 55276,6917.876,95.437,540.695,538.787,0.0
53746.0,STARLINK-4589,PAYLOAD,2023-08-29 23:19:08,15.08844753,0.0001342,53.2164,86.4091,94.1713,265.9433,8.3144e-05,1.036e-05,0.0,0 STARLINK-4589,1 53746U 22107AY  23241.97163162  .00001036  00000-0  83144-4 0  9998,2 53746  53.2164  86.4091 0001342  94.1713 265.9433 15.08844753 54513,6917.866,95.437,540.659,538.802,0.0
53746.0,STARLINK-4589,PAYLOAD,2023-08-30 19:59:10,15.08840597,0.0001295,53.2175,82.545,85.0137,275.1003,6.4703e-05,7.42e-06,0.0,0 STARLINK-4589,1 53746U 22107AY  23242.83275602  .00000742  00000-0  64703-4 0  9990,2 53746  53.2175  82.5450 0001295  85.0137 275.1003 15.08840597 55426,6917.879,95.438,540.639,538.848,0.0
53746.0,STARLINK-4589,PAYLOAD,2023-08-31 00:45:18,15.08850258,0.0001293,53.2177,81.6511,94.1949,265.9191,8.5736e-05,1.077e-05,0.0,0 STARLINK-4589,1 53746U 22107AY  23243.03146822  .00001077  00000-0  85736-4 0  9995,2 53746  53.2177  81.6511 0001293  94.1949 265.9191 15.08850258 54672,6917.849,95.437,540.609,538.82,0.0
53746.0,STARLINK-4589,PAYLOAD,2023-08-31 15:03:47,15.0884026,8.98e-05,53.2172,78.9765,91.7395,268.37,0.00017984,2.576e-05,0.0,0 STARLINK-4589,1 53746U 22107AY  23243.62763254  .00002576  00000-0  17984-3 0  9998,2 53746  53.2172  78.9765 0000898  91.7395 268.3700 15.08840260 54760,6917.88,95.438,540.366,539.123,0.0
53746.0,STARLINK-4589,PAYLOAD,2023-09-01 00:36:05,15.0884913,0.0001223,53.2172,77.1927,82.8916,277.2215,0.0001434,1.996e-05,0.0,0 STARLINK-4589,1 53746U 22107AY  23244.02506780  .00001996  00000-0  14340-3 0  9990,2 53746  53.2172  77.1927 0001223  82.8916 277.2215 15.08849130 54826,6917.852,95.437,540.564,538.871,0.0
53746.0,STARLINK-4589,PAYLOAD,2023-09-01 19:40:49,15.08737683,1.77e-05,53.215,73.6268,180.0017,180.0975,0.00080651,0.00012536,0.0,0 STARLINK-4589,1 53746U 22107AY  23244.82001873  .00012536  00000-0  80651-3 0  9991,2 53746  53.2150  73.6268 0000177 180.0017 180.0975 15.08737683 54947,6918.193,95.444,540.181,539.936,0.0
53746.0,STARLINK-4589,PAYLOAD,2023-09-02 02:02:16,15.08849332,0.0001195,53.2158,72.4329,91.7229,268.39,0.0001303,1.787e-05,0.0,0 STARLINK-4589,1 53746U 22107AY  23245.08491027  .00001787  00000-0  13030-3 0  9997,2 53746  53.2158  72.4329 0001195  91.7229 268.3900 15.08849332 54981,6917.852,95.437,540.544,538.89,0.0
53746.0,STARLINK-4589,PAYLOAD,2023-09-02 03:37:40,15.08828696,0.0001343,53.2157,72.1364,95.5441,264.5705,-0.00012183,-2.226e-05,0.0,0 STARLINK-4589,1 53746U 22107AY  23245.15115972 -.00002226  00000-0 -12183-3 0  9996,2 53746  53.2157  72.1364 0001343  95.5441 264.5705 15.08828696 54991,6917.915,95.438,540.709,538.851,0.0
53746.0,STARLINK-4589,PAYLOAD,2023-09-02 21:06:54,15.08841041,0.0001203,53.216,68.8651,88.9198,271.1932,5.0602e-05,5.18e-06,0.0,0 STARLINK-4589,1 53746U 22107AY  23245.87979691  .00000518  00000-0  50602-4 0  9990,2 53746  53.2160  68.8651 0001203  88.9198 271.1932 15.08841041 55880,6917.877,95.437,540.574,538.91,0.0
53746.0,STARLINK-4589,PAYLOAD,2023-09-03 00:17:40,15.088423,0.0001489,53.2157,68.2699,91.8521,268.2641,0.00013004,1.782e-05,0.0,0 STARLINK-4589,1 53746U 22107AY  23246.01227737  .00001782  00000-0  13004-3 0  9992,2 53746  53.2157  68.2699 0001489  91.8521 268.2641 15.08842300 55121,6917.873,95.437,540.768,538.708,0.0
53746.0,STARLINK-4589,PAYLOAD,2023-09-03 05:03:50,15.08840753,0.0001243,53.2157,67.3777,89.4827,270.6307,0.00022538,3.301e-05,0.0,0 STARLINK-4589,1 53746U 22107AY  23246.21099895  .00003301  00000-0  22538-3 0  9997,2 53746  53.2157  67.3777 0001243  89.4827 270.6307 15.08840753 55933,6917.878,95.438,540.603,538.883,0.0
53746.0,STARLINK-4589,PAYLOAD,2023-09-04 04:54:37,15.0883804,0.0001388,53.2159,62.9162,90.9275,269.1877,7.2662e-05,8.69e-06,0.0,0 STARLINK-4589,1 53746U 22107AY  23247.20459935  .00000869  00000-0  72662-4 0  9992,2 53746  53.2159  62.9162 0001388  90.9275 269.1877 15.08838040 55300,6917.886,95.438,540.712,538.791,0.0
53746.0,STARLINK-4589,PAYLOAD,2023-09-05 04:45:24,15.08835184,0.0001433,53.2163,58.4561,88.5359,271.5798,1.1238e-05,-1.09e-06,0.0,0 STARLINK-4589,1 53746U 22107AY  23248.19820425 -.00000109  00000-0  11238-4 0  9997,2 53746  53.2163  58.4561 0001433  88.5359 271.5798 15.08835184 55456,6917.895,95.438,540.751,538.769,0.0
53746.0,STARLINK-4589,PAYLOAD,2023-09-05 17:28:29,15.08844141,0.0001372,53.2167,56.0783,85.8905,274.2244,0.00012856,1.759e-05,0.0,0 STARLINK-4589,1 53746U 22107AY  23248.72812212  .00001759  00000-0  12856-3 0  9998,2 53746  53.2167  56.0783 0001372  85.8905 274.2244 15.08844141 55537,6917.868,95.437,540.682,538.784,0.0
53746.0,STARLINK-4589,PAYLOAD,2023-09-06 04:36:11,15.08844329,0.0001266,53.2167,53.9973,86.6757,273.438,0.0001422,1.976e-05,0.0,0 STARLINK-4589,1 53746U 22107AY  23249.19180288  .00001976  00000-0  14220-3 0  9999,2 53746  53.2167  53.9973 0001266  86.6757 273.4380 15.08844329 56384,6917.867,95.437,540.608,538.856,0.0
53746.0,STARLINK-4589,PAYLOAD,2023-09-06 17:19:17,15.08838933,0.0001225,53.2172,51.618,89.3028,270.8104,0.00031047,4.657e-05,0.0,0 STARLINK-4589,1 53746U 22107AY  23249.72172754  .00004657  00000-0  31047-3 0  9992,2 53746  53.2172  51.6180 0001225  89.3028 270.8104 15.08838933 55682,6917.884,95.438,540.596,538.901,0.0
53746.0,STARLINK-4589,PAYLOAD,2023-09-06 20:30:03,15.08838725,0.0001407,53.2168,51.0257,80.4229,279.6922,0.00051751,7.958e-05,0.0,0 STARLINK-4589,1 53746U 22107AY  23249.85420823  .00007958  00000-0  51751-3 0  9990,2 53746  53.2168  51.0257 0001407  80.4229 279.6922 15.08838725 56486,6917.884,95.438,540.723,538.776,0.0
53746.0,STARLINK-4589,PAYLOAD,2023-09-06 22:05:26,15.08849984,0.0001271,53.2158,50.7282,84.5037,275.61,0.00026897,3.996e-05,0.0,0 STARLINK-4589,1 53746U 22107AY  23249.92044143  .00003996  00000-0  26897-3 0  9996,2 53746  53.2158  50.7282 0001271  84.5037 275.6100 15.08849984 55718,6917.85,95.437,540.594,538.836,0.0
53746.0,STARLINK-4589,PAYLOAD,2023-09-07 04:26:59,15.08841636,0.0001507,53.2166,49.5388,76.2388,283.8771,0.00012133,1.644e-05,0.0,0 STARLINK-4589,1 53746U 22107AY  23250.18540596  .00001644  00000-0  12133-3 0  9995,2 53746  53.2166  49.5388 0001507  76.2388 283.8771 15.08841636 55754,6917.875,95.437,540.783,538.698,0.0
53746.0,STARLINK-4589,PAYLOAD,2023-09-07 12:23:54,15.08842498,0.0001433,53.2167,48.0514,77.1294,282.9858,0.00012606,1.719e-05,0.0,0 STARLINK-4589,1 53746U 22107AY  23250.51660484  .00001719  00000-0  12606-3 0  9999,2 53746  53.2167  48.0514 0001433  77.1294 282.9858 15.08842498 56589,6917.873,95.437,540.729,538.746,0.0
53746.0,STARLINK-4589,PAYLOAD,2023-09-07 20:20:50,15.08846383,0.0001479,53.2166,46.5648,74.3416,285.774,0.00012712,1.736e-05,0.0,0 STARLINK-4589,1 53746U 22107AY  23250.84780270  .00001736  00000-0  12712-3 0  9998,2 53746  53.2166  46.5648 0001479  74.3416 285.7740 15.08846383 56638,6917.861,95.437,540.749,538.703,0.0
53746.0,STARLINK-4589,PAYLOAD,2023-09-08 13:50:04,15.08838734,0.0001286,53.2166,43.2924,90.3443,269.7696,2.8681e-05,1.69e-06,0.0,0 STARLINK-4589,1 53746U 22107AY  23251.57644604  .00000169  00000-0  28681-4 0  9991,2 53746  53.2166  43.2924 0001286  90.3443 269.7696 15.08838734 56748,6917.884,95.438,540.639,538.86,0.0
53746.0,STARLINK-4589,PAYLOAD,2023-09-08 17:00:51,15.08841108,0.0001327,53.2176,42.6972,84.9183,275.1961,6.323e-05,7.19e-06,0.0,0 STARLINK-4589,1 53746U 22107AY  23251.70892544  .00000719  00000-0  63230-4 0  9994,2 53746  53.2176  42.6972 0001327  84.9183 275.1961 15.08841108 55981,6917.877,95.437,540.66,538.824,0.0
53746.0,STARLINK-4589,PAYLOAD,2023-09-08 20:11:37,15.08844577,0.0001193,53.2177,42.1016,83.1629,276.9499,4.5698e-05,4.4e-06,0.0,0 STARLINK-4589,1 53746U 22107AY  23251.84140346  .00000440  00000-0  45698-4 0  9994,2 53746  53.2177  42.1016 0001193  83.1629 276.9499 15.08844577 56780,6917.866,95.437,540.557,538.906,0.0
